NORAD_CAT_ID,OBJECT_NAME,OBJECT_TYPE,EPOCH,MEAN_MOTION,ECCENTRICITY,INCLINATION,RA_OF_ASC_NODE,ARG_OF_PERICENTER,MEAN_ANOMALY,BSTAR,MEAN_MOTION_DOT,MEAN_MOTION_DDOT,TLE_LINE0,TLE_LINE1,TLE_LINE2,SEMIMAJOR_AXIS,PERIOD,APOGEE,PERIGEE,DECAYED
51104.0,STARLINK-3366,PAYLOAD,2023-09-11 17:36:07,15.08841751,0.0001323,53.2177,54.0722,91.0437,269.0707,8.8406e-05,1.119e-05,0.0,0 STARLINK-3366,1 51104U 22005A   23254.73342156  .00001119  00000-0  88406-4 0  9999,2 51104  53.2177  54.0722 0001323  91.0437 269.0707 15.08841751 92621,6917.875,95.437,540.655,538.825,0.0
51104.0,STARLINK-3366,PAYLOAD,2023-09-11 22:22:16,15.08849154,0.0001285,53.2187,53.1799,89.7132,270.4008,0.00010418,1.371e-05,0.0,0 STARLINK-3366,1 51104U 22005A   23254.93213622  .00001371  00000-0  10418-3 0  9993,2 51104  53.2187  53.1799 0001285  89.7132 270.4008 15.08849154 92657,6917.852,95.437,540.606,538.828,0.0
51104.0,STARLINK-3366,PAYLOAD,2023-09-12 03:08:26,15.08845435,0.0001227,53.2183,52.2874,89.7518,270.3614,9.9156e-05,1.291e-05,0.0,0 STARLINK-3366,1 51104U 22005A   23255.13085882  .00001291  00000-0  99156-4 0  9999,2 51104  53.2183  52.2874 0001227  89.7518 270.3614 15.08845435 91560,6917.864,95.437,540.578,538.88,0.0
51104.0,STARLINK-3366,PAYLOAD,2023-09-12 17:26:54,15.08844189,0.0001387,53.2188,49.6115,91.2095,268.9056,7.5046e-05,9.07e-06,0.0,0 STARLINK-3366,1 51104U 22005A   23255.72702033  .00000907  00000-0  75046-4 0  9993,2 51104  53.2188  49.6115 0001387  91.2095 268.9056 15.08844189 92770,6917.868,95.437,540.692,538.773,0.0
51104.0,STARLINK-3366,PAYLOAD,2023-09-12 22:13:03,15.08855122,0.0001304,53.2186,48.7203,87.684,272.4301,0.00016907,2.405e-05,0.0,0 STARLINK-3366,1 51104U 22005A   23255.92573086  .00002405  00000-0  16907-3 0  9994,2 51104  53.2186  48.7203 0001304  87.6840 272.4301 15.08855122 92808,6917.834,95.437,540.601,538.797,0.0
51104.0,STARLINK-3366,PAYLOAD,2023-09-13 02:59:13,15.08836896,0.0001256,53.2186,47.8266,89.4795,270.6341,1.808e-06,-2.59e-06,0.0,0 STARLINK-3366,1 51104U 22005A   23256.12446194 -.00000259  00000-0  18080-5 0  9998,2 51104  53.2186  47.8266 0001256  89.4795 270.6341 15.08836896 92836,6917.89,95.438,540.624,538.886,0.0
51104.0,STARLINK-3366,PAYLOAD,2023-09-13 17:17:40,15.08854547,0.0001083,53.2174,45.1515,89.0923,271.0194,0.00019867,2.877e-05,0.0,0 STARLINK-3366,1 51104U 22005A   23256.72061015  .00002877  00000-0  19867-3 0  9998,2 51104  53.2174  45.1515 0001083  89.0923 271.0194 15.08854547 92922,6917.836,95.437,540.45,538.952,0.0
51104.0,STARLINK-3366,PAYLOAD,2023-09-13 20:28:27,15.08856046,0.0001294,53.2174,44.5574,95.4076,264.7064,0.00026433,3.923e-05,0.0,0 STARLINK-3366,1 51104U 22005A   23256.85309036  .00003923  00000-0  26433-3 0  9990,2 51104  53.2174  44.5574 0001294  95.4076 264.7064 15.08856046 91823,6917.831,95.437,540.592,538.801,0.0
51104.0,STARLINK-3366,PAYLOAD,2023-09-14 17:08:29,15.08827625,0.0001311,53.2178,40.6906,75.4333,284.6804,-0.00015638,-2.775e-05,0.0,0 STARLINK-3366,1 51104U 22005A   23257.71422645 -.00002775  00000-0 -15638-3 0  9999,2 51104  53.2178  40.6906 0001311  75.4333 284.6804 15.08827625 93070,6917.918,95.438,540.69,538.876,0.0
51104.0,STARLINK-3366,PAYLOAD,2023-09-14 18:43:52,15.08827113,0.0001267,53.2178,40.3933,79.4205,280.693,-0.0001439,-2.576e-05,0.0,0 STARLINK-3366,1 51104U 22005A   23257.78046696 -.00002576  00000-0 -14390-3 0  9997,2 51104  53.2178  40.3933 0001267  79.4205 280.6930 15.08827113 91963,6917.92,95.438,540.661,538.908,0.0
51104.0,STARLINK-3366,PAYLOAD,2023-09-15 13:48:30,15.08842324,0.0001258,53.2173,36.825,76.9021,283.2112,0.00068673,0.00010659,0.0,0 STARLINK-3366,1 51104U 22005A   23258.57535023  .00010659  00000-0  68673-3 0  9994,2 51104  53.2173  36.8250 0001258  76.9021 283.2112 15.08842324 92084,6917.873,95.437,540.609,538.868,0.0
51104.0,STARLINK-3366,PAYLOAD,2023-09-15 16:59:16,15.08850474,0.0001202,53.2174,36.2296,75.1744,284.9381,0.00098119,0.00015367,0.0,0 STARLINK-3366,1 51104U 22005A   23258.70782941  .00015367  00000-0  98119-3 0  9991,2 51104  53.2174  36.2296 0001202  75.1744 284.9381 15.08850474 93229,6917.848,95.437,540.545,538.882,0.0
51104.0,STARLINK-3366,PAYLOAD,2023-09-16 08:53:07,15.08846815,0.0001362,53.2165,33.2586,76.8985,283.2159,0.00034477,5.204e-05,0.0,0 STARLINK-3366,1 51104U 22005A   23259.37022864  .00005204  00000-0  34477-3 0  9992,2 51104  53.2165  33.2586 0001362  76.8985 283.2159 15.08846815 93320,6917.86,95.437,540.667,538.782,0.0
51104.0,STARLINK-3366,PAYLOAD,2023-09-16 13:39:17,15.08842515,0.0001677,53.2183,32.3675,71.7953,288.3222,0.00016571,2.35e-05,0.0,0 STARLINK-3366,1 51104U 22005A   23259.56895108  .00002350  00000-0  16571-3 0  9996,2 51104  53.2183  32.3675 0001677  71.7953 288.3222 15.08842515 92236,6917.873,95.437,540.898,538.578,0.0
51104.0,STARLINK-3366,PAYLOAD,2023-09-16 15:14:40,15.0884022,0.0001438,53.2179,32.0703,71.0102,289.1046,0.00023597,3.47e-05,0.0,0 STARLINK-3366,1 51104U 22005A   23259.63519233  .00003470  00000-0  23597-3 0  9996,2 51104  53.2179  32.0703 0001438  71.0102 289.1046 15.08840220 93363,6917.88,95.438,540.74,538.75,0.0
51104.0,STARLINK-3366,PAYLOAD,2023-09-17 13:30:04,15.08847538,0.0001429,53.218,27.9075,71.8592,288.2556,0.00023819,3.506e-05,0.0,0 STARLINK-3366,1 51104U 22005A   23260.56254912  .00003506  00000-0  23819-3 0  9997,2 51104  53.2180  27.9075 0001429  71.8592 288.2556 15.08847538 92387,6917.857,95.437,540.711,538.734,0.0
51104.0,STARLINK-3366,PAYLOAD,2023-09-17 18:16:13,15.08855233,0.0001251,53.2181,27.0133,86.812,273.3015,0.00020702,3.01e-05,0.0,0 STARLINK-3366,1 51104U 22005A   23260.76126300  .00003010  00000-0  20702-3 0  9996,2 51104  53.2181  27.0133 0001251  86.8120 273.3015 15.08855233 93534,6917.834,95.437,540.564,538.833,0.0
51104.0,STARLINK-3366,PAYLOAD,2023-09-18 13:20:51,15.08843787,0.0001563,53.219,23.4474,65.5453,294.5702,0.00013146,1.805e-05,0.0,0 STARLINK-3366,1 51104U 22005A   23261.55614933  .00001805  00000-0  13146-3 0  9992,2 51104  53.2190  23.4474 0001563  65.5453 294.5702 15.08843787 92539,6917.869,95.437,540.815,538.653,0.0
51104.0,STARLINK-3366,PAYLOAD,2023-09-18 14:56:13,15.08854022,0.0001482,53.219,23.148,110.6988,249.4163,0.00026672,3.961e-05,0.0,0 STARLINK-3366,1 51104U 22005A   23261.62238237  .00003961  00000-0  26672-3 0  9992,2 51104  53.2190  23.1480 0001482 110.6988 249.4163 15.08854022 93667,6917.838,95.437,540.728,538.677,0.0
51104.0,STARLINK-3366,PAYLOAD,2023-09-18 19:42:22,15.08861732,0.0001134,53.2182,22.2558,102.1141,257.9978,0.00045134,6.907e-05,0.0,0 STARLINK-3366,1 51104U 22005A   23261.82109944  .00006907  00000-0  45134-3 0  9993,2 51104  53.2182  22.2558 0001134 102.1141 257.9978 15.08861732 92578,6917.814,95.436,540.463,538.894,0.0
51104.0,STARLINK-3366,PAYLOAD,2023-09-19 08:25:28,15.08842454,0.0001168,53.2187,19.877,98.9901,261.1223,-1.7438e-05,-5.65e-06,0.0,0 STARLINK-3366,1 51104U 22005A   23262.35102467 -.00000565  00000-0 -17438-4 0  9998,2 51104  53.2187  19.8770 0001168  98.9901 261.1223 15.08842454 93777,6917.873,95.437,540.546,538.93,0.0
51104.0,STARLINK-3366,PAYLOAD,2023-09-19 13:11:37,15.08860384,0.0001337,53.2186,18.9845,105.062,255.052,0.00031766,4.774e-05,0.0,0 STARLINK-3366,1 51104U 22005A   23262.54973587  .00004774  00000-0  31766-3 0  9991,2 51104  53.2186  18.9845 0001337 105.0620 255.0520 15.08860384 93803,6917.818,95.436,540.608,538.758,0.0
51104.0,STARLINK-3366,PAYLOAD,2023-09-20 13:02:25,15.08816528,0.0001459,53.2191,14.5243,103.5374,256.5781,-0.00044299,-7.327e-05,0.0,0 STARLINK-3366,1 51104U 22005A   23263.54335293 -.00007327  00000-0 -44299-3 0  9992,2 51104  53.2191  14.5243 0001459 103.5374 256.5781 15.08816528 93959,6917.952,95.439,540.826,538.808,0.0
51104.0,STARLINK-3366,PAYLOAD,2023-09-20 14:37:48,15.08812294,0.0001294,53.2186,14.2296,89.8642,270.2499,-0.00032446,-5.444e-05,0.0,0 STARLINK-3366,1 51104U 22005A   23263.60959478 -.00005444  00000-0 -32446-3 0  9995,2 51104  53.2186  14.2296 0001294  89.8642 270.2499 15.08812294 92841,6917.965,95.439,540.725,538.935,0.0
51104.0,STARLINK-3366,PAYLOAD,2023-09-20 19:23:58,15.08817752,0.000144,53.219,13.3373,86.1774,273.9383,-0.00024613,-4.201e-05,0.0,0 STARLINK-3366,1 51104U 22005A   23263.80831863 -.00004201  00000-0 -24613-3 0  9991,2 51104  53.2190  13.3373 0001440  86.1774 273.9383 15.08817752 92870,6917.948,95.439,540.81,538.817,0.0
51104.0,STARLINK-3366,PAYLOAD,2023-09-21 09:42:27,15.0884746,0.000127,53.2173,10.6596,63.2084,296.9038,0.0015021,0.00023704,0.0,0 STARLINK-3366,1 51104U 22005A   23264.40448346  .00023704  00000-0  15021-2 0  9997,2 51104  53.2173  10.6596 0001270  63.2084 296.9038 15.08847460 94085,6917.858,95.437,540.601,538.844,0.0
51104.0,STARLINK-3366,PAYLOAD,2023-09-21 12:53:13,15.08854636,0.0001323,53.2174,10.0653,61.941,298.1716,0.0015123,0.00023872,0.0,0 STARLINK-3366,1 51104U 22005A   23264.53696219  .00023872  00000-0  15123-2 0  9994,2 51104  53.2174  10.0653 0001323  61.9410 298.1716 15.08854636 92988,6917.836,95.437,540.616,538.785,0.0
51104.0,STARLINK-3366,PAYLOAD,2023-09-21 16:03:59,15.08862807,0.0001333,53.2173,9.4706,60.2805,299.832,0.0015867,0.0002507,0.0,0 STARLINK-3366,1 51104U 22005A   23264.66944025  .00025070  00000-0  15867-2 0  9996,2 51104  53.2173   9.4706 0001333  60.2805 299.8320 15.08862807 93001,6917.811,95.436,540.598,538.754,0.0
51104.0,STARLINK-3366,PAYLOAD,2023-09-22 00:00:55,15.08860467,0.000138,53.2163,7.9815,66.9529,293.1609,0.0010234,0.00016046,0.0,0 STARLINK-3366,1 51104U 22005A   23265.00063924  .00016046  00000-0  10234-2 0  9991,2 51104  53.2163   7.9815 0001380  66.9529 293.1609 15.08860467 94178,6917.818,95.436,540.637,538.728,0.0
51104.0,STARLINK-3366,PAYLOAD,2023-09-22 11:08:36,15.08858429,0.0001406,53.217,5.9025,60.32,299.7932,0.0011358,0.00017844,0.0,0 STARLINK-3366,1 51104U 22005A   23265.46431689  .00017844  00000-0  11358-2 0  9993,2 51104  53.2170   5.9025 0001406  60.3200 299.7932 15.08858429 94244,6917.824,95.436,540.662,538.716,0.0
